{"type": "FeatureCollection", "features": [ {"type": "Feature", "properties": {"norad_id": 66498, "name": "STARLINK-35907", "group": "last-30-days", "lat": -27.941490566386637, "lon": 35.54482943426362, "alt_km": 354.05458559611725, "timestamp": "2025-12-03T06:58:42.032492+00:00", "meta": {"OBJECT_NAME": "STARLINK-35907", "OBJECT_ID": "2025-263P", "EPOCH": "2025-12-02T20:00:03.000384", "MEAN_MOTION": 15.74213505, "ECCENTRICITY": 0.0001233, "INCLINATION": 42.9984, "RA_OF_ASC_NODE": 183.6163, "ARG_OF_PERICENTER": 261.3399, "MEAN_ANOMALY": 248.3623, "EPHEMERIS_TYPE": 0, "CLASSIFICATION_TYPE": "U", "NORAD_CAT_ID": 66498, "ELEMENT_SET_NO": 999, "REV_AT_EPOCH": 404, "BSTAR": -0.015178, "MEAN_MOTION_DOT": -0.0198821, "MEAN_MOTION_DDOT": 0}, "tle": {"line1": "1 66498U 25263P   25336.83336806 -.01988210  00000+0 -15178-1 0  9990", "line2": "2 66498  42.9984 183.6163 0001233 261.3399 248.3623 15.74213505  4040"}}, "geometry": {"type": "Point", "coordinates": [35.54482943426362, -27.941490566386637]}}, {"type": "Feature", "properties": {"norad_id": 66499, "name": "STARLINK-35816", "group": "last-30-days", "lat": -30.036263649479345, "lon": 39.19338411088379, "alt_km": 354.48713009317817, "timestamp": "2025-12-03T06:58:42.032502+00:00", "meta": {"OBJECT_NAME": "STARLINK-35816", "OBJECT_ID": "2025-263Q", "EPOCH": "2025-12-02T20:00:03.000384", "MEAN_MOTION": 15.74214383, "ECCENTRICITY": 0.0001291, "INCLINATION": 42.9983, "RA_OF_ASC_NODE": 183.6069, "ARG_OF_PERICENTER": 282.3143, "MEAN_ANOMALY": 231.218, "EPHEMERIS_TYPE": 0, "CLASSIFICATION_TYPE": "U", "NORAD_CAT_ID": 66499, "ELEMENT_SET_NO": 999, "REV_AT_EPOCH": 404, "BSTAR": -0.015157, "MEAN_MOTION_DOT": -0.0198591, "MEAN_MOTION_DDOT": 0}, "tle": {"line1": "1 66499U 25263Q   25336.83336806 -.01985910  00000+0 -15157-1 0  9992", "line2": "2 66499  42.9983 183.6069 0001291 282.3143 231.2180 15.74214383  4043"}}, "geometry": {"type": "Point", "coordinates": [39.19338411088379, -30.036263649479345]}}, {"type": "Feature", "properties": {"norad_id": 66500, "name": "STARLINK-35894", "group": "last-30-days", "lat": -28.78040938051658, "lon": 36.96796930982932, "alt_km": 355.73030065099556, "timestamp": "2025-12-03T06:58:42.032512+00:00", "meta": {"OBJECT_NAME": "STARLINK-35894", "OBJECT_ID": "2025-263R", "EPOCH": "2025-12-02T20:00:03.000384", "MEAN_MOTION": 15.74246942, "ECCENTRICITY": 0.000132, "INCLINATION": 42.9985, "RA_OF_ASC_NODE": 183.6119, "ARG_OF_PERICENTER": 281.1752, "MEAN_ANOMALY": 230.4313, "EPHEMERIS_TYPE": 0, "CLASSIFICATION_TYPE": "U", "NORAD_CAT_ID": 66500, "ELEMENT_SET_NO": 999, "REV_AT_EPOCH": 404, "BSTAR": -0.019356, "MEAN_MOTION_DOT": -0.02514017, "MEAN_MOTION_DDOT": 0}, "tle": {"line1": "1 66500U 25263R   25336.83336806 -.02514017  00000+0 -19356-1 0  9997", "line2": "2 66500  42.9985 183.6119 0001320 281.1752 230.4313 15.74246942  4045"}}, "geometry": {"type": "Point", "coordinates": [36.96796930982932, -28.78040938051658]}}, {"type": "Feature", "properties": {"norad_id": 66501, "name": "STARLINK-35897", "group": "last-30-days", "lat": -31.050530079812386, "lon": 41.08496628564892, "alt_km": 354.313479507593, "timestamp": "2025-12-03T06:58:42.032525+00:00", "meta": {"OBJECT_NAME": "STARLINK-35897", "OBJECT_ID": "2025-263S", "EPOCH": "2025-12-02T20:00:03.000384", "MEAN_MOTION": 15.74212426, "ECCENTRICITY": 0.0001154, "INCLINATION": 42.9983, "RA_OF_ASC_NODE": 183.6018, "ARG_OF_PERICENTER": 268.3944, "MEAN_ANOMALY": 247.056, "EPHEMERIS_TYPE": 0, "CLASSIFICATION_TYPE": "U", "NORAD_CAT_ID": 66501, "ELEMENT_SET_NO": 999, "REV_AT_EPOCH": 404, "BSTAR": -0.015115, "MEAN_MOTION_DOT": -0.01980776, "MEAN_MOTION_DDOT": 0}, "tle": {"line1": "1 66501U 25263S   25336.83336806 -.01980776  00000+0 -15115-1 0  9995", "line2": "2 66501  42.9983 183.6018 0001154 268.3944 247.0560 15.74212426  4045"}}, "geometry": {"type": "Point", "coordinates": [41.08496628564892, -31.050530079812386]}}, {"type": "Feature", "properties": {"norad_id": 66502, "name": "STARLINK-35922", "group": "last-30-days", "lat": -33.90221169785193, "lon": 46.97481467675847, "alt_km": 354.53977595699234, "timestamp": "2025-12-03T06:58:42.032536+00:00", "meta": {"OBJECT_NAME": "STARLINK-35922", "OBJECT_ID": "2025-263T", "EPOCH": "2025-12-02T20:00:03.000384", "MEAN_MOTION": 15.74230158, "ECCENTRICITY": 0.0001328, "INCLINATION": 42.9984, "RA_OF_ASC_NODE": 183.587, "ARG_OF_PERICENTER": 279.4936, "MEAN_ANOMALY": 241.7023, "EPHEMERIS_TYPE": 0, "CLASSIFICATION_TYPE": "U", "NORAD_CAT_ID": 66502, "ELEMENT_SET_NO": 999, "REV_AT_EPOCH": 404, "BSTAR": -0.015349, "MEAN_MOTION_DOT": -0.02009391, "MEAN_MOTION_DDOT": 0}, "tle": {"line1": "1 66502U 25263T   25336.83336806 -.02009391  00000+0 -15349-1 0  9991", "line2": "2 66502  42.9984 183.5870 0001328 279.4936 241.7023 15.74230158  4046"}}, "geometry": {"type": "Point", "coordinates": [46.97481467675847, -33.90221169785193]}}, {"type": "Feature", "properties": {"norad_id": 66503, "name": "STARLINK-35917", "group": "last-30-days", "lat": -35.65621661400999, "lon": 51.15592136106732, "alt_km": 354.3577741188965, "timestamp": "2025-12-03T06:58:42.032547+00:00", "meta": {"OBJECT_NAME": "STARLINK-35917", "OBJECT_ID": "2025-263U", "EPOCH": "2025-12-02T16:00:03.000096", "MEAN_MOTION": 15.74924478, "ECCENTRICITY": 0.00012359, "INCLINATION": 42.9982, "RA_OF_ASC_NODE": 184.5859, "ARG_OF_PERICENTER": 259.7629, "MEAN_ANOMALY": 39.3845, "EPHEMERIS_TYPE": 0, "CLASSIFICATION_TYPE": "U", "NORAD_CAT_ID": 66503, "ELEMENT_SET_NO": 999, "REV_AT_EPOCH": 401, "BSTAR": -0.014593096, "MEAN_MOTION_DOT": -0.01934021, "MEAN_MOTION_DDOT": 0}, "tle": {"line1": "1 66503U 25263U   25336.66670139 -.01934021  00000+0 -14593-1 0  9999", "line2": "2 66503  42.9982 184.5859 0001235 259.7629  39.3845 15.74924478  4015"}}, "geometry": {"type": "Point", "coordinates": [51.15592136106732, -35.65621661400999]}}, {"type": "Feature", "properties": {"norad_id": 66504, "name": "STARLINK-35916", "group": "last-30-days", "lat": 27.529993510791602, "lon": -144.69211570555336, "alt_km": 402.6675784288218, "timestamp": "2025-12-03T06:58:42.032557+00:00", "meta": {"OBJECT_NAME": "STARLINK-35916", "OBJECT_ID": "2025-263V", "EPOCH": "2025-12-02T20:00:03.000384", "MEAN_MOTION": 15.56132202, "ECCENTRICITY": 0.0001591, "INCLINATION": 42.9989, "RA_OF_ASC_NODE": 183.9884, "ARG_OF_PERICENTER": 267.7783, "MEAN_ANOMALY": 91.6122, "EPHEMERIS_TYPE": 0, "CLASSIFICATION_TYPE": "U", "NORAD_CAT_ID": 66504, "ELEMENT_SET_NO": 999, "REV_AT_EPOCH": 404, "BSTAR": -0.040263, "MEAN_MOTION_DOT": -0.02560529, "MEAN_MOTION_DDOT": 0}, "tle": {"line1": "1 66504U 25263V   25336.83336806 -.02560529  00000+0 -40263-1 0  9991", "line2": "2 66504  42.9989 183.9884 0001591 267.7783  91.6122 15.56132202  4047"}}, "geometry": {"type": "Point", "coordinates": [-144.69211570555336, 27.529993510791602]}}, {"type": "Feature", "properties": {"norad_id": 66505, "name": "STARLINK-34766", "group": "last-30-days", "lat": -32.03304064893264, "lon": 43.00947593982085, "alt_km": 354.2453505359963, "timestamp": "2025-12-03T06:58:42.032570+00:00", "meta": {"OBJECT_NAME": "STARLINK-34766", "OBJECT_ID": "2025-263W", "EPOCH": "2025-12-02T20:00:03.000384", "MEAN_MOTION": 15.74213562, "ECCENTRICITY": 0.0001231, "INCLINATION": 42.9984, "RA_OF_ASC_NODE": 183.5964, "ARG_OF_PERICENTER": 262.6555, "MEAN_ANOMALY": 254.7148, "EPHEMERIS_TYPE": 0, "CLASSIFICATION_TYPE": "U", "NORAD_CAT_ID": 66505, "ELEMENT_SET_NO": 999, "REV_AT_EPOCH": 404, "BSTAR": -0.015166, "MEAN_MOTION_DOT": -0.01986796, "MEAN_MOTION_DDOT": 0}, "tle": {"line1": "1 66505U 25263W   25336.83336806 -.01986796  00000+0 -15166-1 0  9993", "line2": "2 66505  42.9984 183.5964 0001231 262.6555 254.7148 15.74213562  4049"}}, "geometry": {"type": "Point", "coordinates": [43.00947593982085, -32.03304064893264]}}, {"type": "Feature", "properties": {"norad_id": 66506, "name": "STARLINK-34765", "group": "last-30-days", "lat": -32.98444675346279, "lon": 44.97410635060853, "alt_km": 354.31990470153687, "timestamp": "2025-12-03T06:58:42.032602+00:00", "meta": {"OBJECT_NAME": "STARLINK-34765", "OBJECT_ID": "2025-263X", "EPOCH": "2025-12-02T20:00:03.000384", "MEAN_MOTION": 15.74212259, "ECCENTRICITY": 0.0001265, "INCLINATION": 42.9984, "RA_OF_ASC_NODE": 183.5924, "ARG_OF_PERICENTER": 267.9092, "MEAN_ANOMALY": 251.3752, "EPHEMERIS_TYPE": 0, "CLASSIFICATION_TYPE": "U", "NORAD_CAT_ID": 66506, "ELEMENT_SET_NO": 999, "REV_AT_EPOCH": 404, "BSTAR": -0.015116, "MEAN_MOTION_DOT": -0.01980959, "MEAN_MOTION_DDOT": 0}, "tle": {"line1": "1 66506U 25263X   25336.83336806 -.01980959  00000+0 -15116-1 0  9994", "line2": "2 66506  42.9984 183.5924 0001265 267.9092 251.3752 15.74212259  4043"}}, "geometry": {"type": "Point", "coordinates": [44.97410635060853, -32.98444675346279]}}, {"type": "Feature", "properties": {"norad_id": 66507, "name": "STARLINK-34767", "group": "last-30-days", "lat": -34.78985943107477, "lon": 49.02620749688844, "alt_km": 354.63693133917604, "timestamp": "2025-12-03T06:58:42.032614+00:00", "meta": {"OBJECT_NAME": "STARLINK-34767", "OBJECT_ID": "2025-263Y", "EPOCH": "2025-12-02T20:00:03.000384", "MEAN_MOTION": 15.74235495, "ECCENTRICITY": 0.0001252, "INCLINATION": 42.9983, "RA_OF_ASC_NODE": 183.5818, "ARG_OF_PERICENTER": 280.8739, "MEAN_ANOMALY": 242.2413, "EPHEMERIS_TYPE": 0, "CLASSIFICATION_TYPE": "U", "NORAD_CAT_ID": 66507, "ELEMENT_SET_NO": 999, "REV_AT_EPOCH": 404, "BSTAR": -0.015444, "MEAN_MOTION_DOT": -0.02020654, "MEAN_MOTION_DDOT": 0}, "tle": {"line1": "1 66507U 25263Y   25336.83336806 -.02020654  00000+0 -15444-1 0  9997", "line2": "2 66507  42.9983 183.5818 0001252 280.8739 242.2413 15.74235495  4043"}}, "geometry": {"type": "Point", "coordinates": [49.02620749688844, -34.78985943107477]}}]}